{
    "links": {
        "self": "http://www.neowsapp.com/rest/v1/neo/3721288?api_key=iIulBulltgU6a56xZRHN4H3l9WmuAYTsLGpBGhQ2"
    },
    "id": "3721288",
    "neo_reference_id": "3721288",
    "name": "(2015 LU38)",
    "designation": "2015 LU38",
    "nasa_jpl_url": "http://ssd.jpl.nasa.gov/sbdb.cgi?sstr=3721288",
    "absolute_magnitude_h": 21.7,
    "estimated_diameter": {
        "kilometers": {
            "estimated_diameter_min": 0.1214940408,
            "estimated_diameter_max": 0.2716689341
        },
        "meters": {
            "estimated_diameter_min": 121.4940407996,
            "estimated_diameter_max": 271.6689340891
        },
        "miles": {
            "estimated_diameter_min": 0.0754928736,
            "estimated_diameter_max": 0.1688071972
        },
        "feet": {
            "estimated_diameter_min": 398.6025088171,
            "estimated_diameter_max": 891.3023057169
        }
    },
    "is_potentially_hazardous_asteroid": false,
    "close_approach_data": [
        {
            "close_approach_date": "2010-07-09",
            "close_approach_date_full": "2010-Jul-09 20:17",
            "epoch_date_close_approach": 1278706620000,
            "relative_velocity": {
                "kilometers_per_second": "10.9004966703",
                "kilometers_per_hour": "39241.7880132078",
                "miles_per_hour": "24383.3210018735"
            },
            "miss_distance": {
                "astronomical": "0.2499714659",
                "lunar": "97.2389002351",
                "kilometers": "37395198.859417633",
                "miles": "23236299.0897360154"
            },
            "orbiting_body": "Earth"
        },
        {
            "close_approach_date": "2015-07-03",
            "close_approach_date_full": "2015-Jul-03 06:34",
            "epoch_date_close_approach": 1435905240000,
            "relative_velocity": {
                "kilometers_per_second": "16.0591393585",
                "kilometers_per_hour": "57812.9016904646",
                "miles_per_hour": "35922.6888309445"
            },
            "miss_distance": {
                "astronomical": "0.1198345456",
                "lunar": "46.6156382384",
                "kilometers": "17926992.774177872",
                "miles": "11139316.7728917536"
            },
            "orbiting_body": "Earth"
        },
        {
            "close_approach_date": "2020-06-21",
            "close_approach_date_full": "2020-Jun-21 02:36",
            "epoch_date_close_approach": 1592706960000,
            "relative_velocity": {
                "kilometers_per_second": "23.2116366185",
                "kilometers_per_hour": "83561.8918264351",
                "miles_per_hour": "51922.1099518202"
            },
            "miss_distance": {
                "astronomical": "0.3564924832",
                "lunar": "138.6755759648",
                "kilometers": "53330516.157730784",
                "miles": "33138046.1087974592"
            },
            "orbiting_body": "Earth"
        }
    ],
    "orbital_data": {
        "orbit_id": "6",
        "orbit_determination_date": "2017-04-06 08:33:05",
        "first_observation_date": "2015-06-15",
        "last_observation_date": "2015-07-09",
        "data_arc_in_days": 24,
        "observations_used": 42,
        "orbit_uncertainty": "7",
        "minimum_orbit_intersection": ".0885622",
        "jupiter_tisserand_invariant": "4.614",
        "epoch_osculation": "2459000.5",
        "eccentricity": ".4128713873891082",
        "semi_major_axis": "1.397002679131703",
        "inclination": "19.51476853508614",
        "ascending_node_longitude": "89.39984998800051",
        "orbital_period": "603.1068836150326",
        "perihelion_distance": ".8202202448122954",
        "perihelion_argument": "274.2941434554259",
        "aphelion_distance": "1.97378511345111",
        "perihelion_time": "2459077.144823135779",
        "mean_anomaly": "314.2500059632998",
        "mean_motion": ".5969091213851748",
        "equinox": "J2000",
        "orbit_class": {
            "orbit_class_type": "APO",
            "orbit_class_description": "Near-Earth asteroid orbits which cross the Earth’s orbit similar to that of 1862 Apollo",
            "orbit_class_range": "a (semi-major axis) > 1.0 AU; q (perihelion) < 1.017 AU"
        }
    },
    "is_sentry_object": false
}